{
  "type": "FeatureCollection",
  "features": [
    {
      "type": "Feature",
      "properties": {
        "norad_id": 66698,
        "name": "IRIDE FM4",
        "group": "last-30-days",
        "lat": -36.337249580706924,
        "lon": -112.92419842319943,
        "alt_km": 518.2437178257014,
        "timestamp": "2025-12-27T02:10:14.906716+00:00",
        "meta_object_name": "IRIDE FM4",
        "meta_object_id": "2025-276AJ",
        "meta_epoch": "2025-12-26T20:00:01.999008",
        "meta_mean_motion": 15.17423349,
        "meta_eccentricity": 0.0002838,
        "meta_inclination": 97.4385,
        "meta_ra_of_asc_node": 72.3382,
        "meta_arg_of_pericenter": 234.7304,
        "meta_mean_anomaly": 18.3438,
        "meta_ephemeris_type": 0,
        "meta_classification_type": "U",
        "meta_norad_cat_id": 66698,
        "meta_element_set_no": 999,
        "meta_rev_at_epoch": 130,
        "meta_bstar": -0.002466,
        "meta_mean_motion_dot": -0.00049019,
        "meta_mean_motion_ddot": 0,
        "tle_line1": "1 66698U 25276AJ  25360.83335647 -.00049019  00000+0 -24660-2 0  9996",
        "tle_line2": "2 66698  97.4385  72.3382 0002838 234.7304  18.3438 15.17423349  1302"
      },
      "geometry": {
        "type": "Point",
        "coordinates": [
          -112.92419842319943,
          -36.337249580706924
        ]
      }
    },
    {
      "type": "Feature",
      "properties": {
        "norad_id": 66699,
        "name": "IRIDE FM5",
        "group": "last-30-days",
        "lat": -38.21073543046774,
        "lon": -113.30847472852642,
        "alt_km": 518.7310635935655,
        "timestamp": "2025-12-27T02:10:14.906726+00:00",
        "meta_object_name": "IRIDE FM5",
        "meta_object_id": "2025-276AK",
        "meta_epoch": "2025-12-26T12:33:00.445248",
        "meta_mean_motion": 15.17468684,
        "meta_eccentricity": 0.0003106,
        "meta_inclination": 97.4403,
        "meta_ra_of_asc_node": 72.0389,
        "meta_arg_of_pericenter": 280.927,
        "meta_mean_anomaly": 79.1614,
        "meta_ephemeris_type": 0,
        "meta_classification_type": "U",
        "meta_norad_cat_id": 66699,
        "meta_element_set_no": 999,
        "meta_rev_at_epoch": 421,
        "meta_bstar": 0.0028356,
        "meta_mean_motion_dot": 0.00057122,
        "meta_mean_motion_ddot": 0,
        "tle_line1": "1 66699U 25276AK  25360.52292182  .00057122  00000+0  28356-2 0  9997",
        "tle_line2": "2 66699  97.4403  72.0389 0003106 280.9270  79.1614 15.17468684  4217"
      },
      "geometry": {
        "type": "Point",
        "coordinates": [
          -113.30847472852642,
          -38.21073543046774
        ]
      }
    },
    {
      "type": "Feature",
      "properties": {
        "norad_id": 66700,
        "name": "IRIDE FM6",
        "group": "last-30-days",
        "lat": -56.42570563902293,
        "lon": 83.99486612797949,
        "alt_km": 519.358154371449,
        "timestamp": "2025-12-27T02:10:14.906738+00:00",
        "meta_object_name": "IRIDE FM6",
        "meta_object_id": "2025-276AL",
        "meta_epoch": "2025-12-26T16:55:54.837120",
        "meta_mean_motion": 15.18286268,
        "meta_eccentricity": 0.0002034,
        "meta_inclination": 97.4413,
        "meta_ra_of_asc_node": 72.2597,
        "meta_arg_of_pericenter": 150.6509,
        "meta_mean_anomaly": 209.4839,
        "meta_ephemeris_type": 0,
        "meta_classification_type": "U",
        "meta_norad_cat_id": 66700,
        "meta_element_set_no": 999,
        "meta_rev_at_epoch": 424,
        "meta_bstar": 0.00051488,
        "meta_mean_motion_dot": 0.00010495,
        "meta_mean_motion_ddot": 0,
        "tle_line1": "1 66700U 25276AL  25360.70549580  .00010495  00000+0  51488-3 0  9992",
        "tle_line2": "2 66700  97.4413  72.2597 0002034 150.6509 209.4839 15.18286268  4248"
      },
      "geometry": {
        "type": "Point",
        "coordinates": [
          83.99486612797949,
          -56.42570563902293
        ]
      }
    },
    {
      "type": "Feature",
      "properties": {
        "norad_id": 66701,
        "name": "IRIDE FM7",
        "group": "last-30-days",
        "lat": -38.12639845661982,
        "lon": -113.28505014622792,
        "alt_km": 517.7510369908478,
        "timestamp": "2025-12-27T02:10:14.906748+00:00",
        "meta_object_name": "IRIDE FM7",
        "meta_object_id": "2025-276AM",
        "meta_epoch": "2025-12-26T18:52:49.751616",
        "meta_mean_motion": 15.17440273,
        "meta_eccentricity": 0.0003679,
        "meta_inclination": 97.4413,
        "meta_ra_of_asc_node": 72.3043,
        "meta_arg_of_pericenter": 243.8933,
        "meta_mean_anomaly": 116.1922,
        "meta_ephemeris_type": 0,
        "meta_classification_type": "U",
        "meta_norad_cat_id": 66701,
        "meta_element_set_no": 999,
        "meta_rev_at_epoch": 425,
        "meta_bstar": 0.00026899,
        "meta_mean_motion_dot": 5.317e-05,
        "meta_mean_motion_ddot": 0,
        "tle_line1": "1 66701U 25276AM  25360.78668694  .00005317  00000+0  26899-3 0  9994",
        "tle_line2": "2 66701  97.4413  72.3043 0003679 243.8933 116.1922 15.17440273  4253"
      },
      "geometry": {
        "type": "Point",
        "coordinates": [
          -113.28505014622792,
          -38.12639845661982
        ]
      }
    },
    {
      "type": "Feature",
      "properties": {
        "norad_id": 66702,
        "name": "IRIDE FM8",
        "group": "last-30-days",
        "lat": -39.09984652098962,
        "lon": -113.50135686977305,
        "alt_km": 518.262572418872,
        "timestamp": "2025-12-27T02:10:14.906758+00:00",
        "meta_object_name": "IRIDE FM8",
        "meta_object_id": "2025-276AN",
        "meta_epoch": "2025-12-26T18:52:34.404384",
        "meta_mean_motion": 15.17445825,
        "meta_eccentricity": 0.0002892,
        "meta_inclination": 97.4392,
        "meta_ra_of_asc_node": 72.2957,
        "meta_arg_of_pericenter": 244.1561,
        "meta_mean_anomaly": 115.9374,
        "meta_ephemeris_type": 0,
        "meta_classification_type": "U",
        "meta_norad_cat_id": 66702,
        "meta_element_set_no": 999,
        "meta_rev_at_epoch": 425,
        "meta_bstar": 0.00031829,
        "meta_mean_motion_dot": 6.305e-05,
        "meta_mean_motion_ddot": 0,
        "tle_line1": "1 66702U 25276AN  25360.78650931  .00006305  00000+0  31829-3 0  9997",
        "tle_line2": "2 66702  97.4392  72.2957 0002892 244.1561 115.9374 15.17445825  4256"
      },
      "geometry": {
        "type": "Point",
        "coordinates": [
          -113.50135686977305,
          -39.09984652098962
        ]
      }
    },
    {
      "type": "Feature",
      "properties": {
        "norad_id": 66703,
        "name": "PELICAN-6",
        "group": "last-30-days",
        "lat": -44.91376674601783,
        "lon": -114.88700670302632,
        "alt_km": 519.7479811632447,
        "timestamp": "2025-12-27T02:10:14.906769+00:00",
        "meta_object_name": "PELICAN-6",
        "meta_object_id": "2025-276AP",
        "meta_epoch": "2025-12-26T18:51:00.085824",
        "meta_mean_motion": 15.17367135,
        "meta_eccentricity": 0.0001223,
        "meta_inclination": 97.44,
        "meta_ra_of_asc_node": 72.2995,
        "meta_arg_of_pericenter": 212.1129,
        "meta_mean_anomaly": 148.003,
        "meta_ephemeris_type": 0,
        "meta_classification_type": "U",
        "meta_norad_cat_id": 66703,
        "meta_element_set_no": 999,
        "meta_rev_at_epoch": 425,
        "meta_bstar": 0.00041207,
        "meta_mean_motion_dot": 8.165e-05,
        "meta_mean_motion_ddot": 0,
        "tle_line1": "1 66703U 25276AP  25360.78541766  .00008165  00000+0  41207-3 0  9990",
        "tle_line2": "2 66703  97.4400  72.2995 0001223 212.1129 148.0030 15.17367135  4254"
      },
      "geometry": {
        "type": "Point",
        "coordinates": [
          -114.88700670302632,
          -44.91376674601783
        ]
      }
    },
    {
      "type": "Feature",
      "properties": {
        "norad_id": 66704,
        "name": "FLOCK 4H-1",
        "group": "last-30-days",
        "lat": -66.0557752612648,
        "lon": 89.72537621097794,
        "alt_km": 519.817575536893,
        "timestamp": "2025-12-27T02:10:14.906781+00:00",
        "meta_object_name": "FLOCK 4H-1",
        "meta_object_id": "2025-276AQ",
        "meta_epoch": "2025-12-26T20:00:01.999008",
        "meta_mean_motion": 15.18174853,
        "meta_eccentricity": 0.0002339,
        "meta_inclination": 97.4374,
        "meta_ra_of_asc_node": 72.3646,
        "meta_arg_of_pericenter": 159.6194,
        "meta_mean_anomaly": 169.016,
        "meta_ephemeris_type": 0,
        "meta_classification_type": "U",
        "meta_norad_cat_id": 66704,
        "meta_element_set_no": 999,
        "meta_rev_at_epoch": 241,
        "meta_bstar": -0.002351,
        "meta_mean_motion_dot": -0.00047758,
        "meta_mean_motion_ddot": 0,
        "tle_line1": "1 66704U 25276AQ  25360.83335647 -.00047758  00000+0 -23510-2 0  9995",
        "tle_line2": "2 66704  97.4374  72.3646 0002339 159.6194 169.0160 15.18174853  2412"
      },
      "geometry": {
        "type": "Point",
        "coordinates": [
          89.72537621097794,
          -66.0557752612648
        ]
      }
    }
  ]
}